{
  "type": "FeatureCollection",
  "features": [
    {
      "type": "Feature",
      "properties": {
        "norad_id": 41330,
        "name": "COSMOS 2514 (751)",
        "group": "glo-ops",
        "lat": -8.634518515716561,
        "lon": 143.54040864900105,
        "alt_km": 19104.59073682909,
        "timestamp": "2025-12-09T11:33:55.060786+00:00",
        "meta_object_name": "COSMOS 2514 (751)",
        "meta_object_id": "2016-008A",
        "meta_epoch": "2025-12-08T07:06:30.420288",
        "meta_mean_motion": 2.13102512,
        "meta_eccentricity": 0.00122682,
        "meta_inclination": 65.1364,
        "meta_ra_of_asc_node": 319.5561,
        "meta_arg_of_pericenter": 220.0272,
        "meta_mean_anomaly": 139.8771,
        "meta_ephemeris_type": 0,
        "meta_classification_type": "U",
        "meta_norad_cat_id": 41330,
        "meta_element_set_no": 999,
        "meta_rev_at_epoch": 7655,
        "meta_bstar": 0,
        "meta_mean_motion_dot": -4.9e-07,
        "meta_mean_motion_ddot": 0,
        "tle_line1": "1 41330U 16008A   25342.29618542 -.00000049  00000+0  00000+0 0  9991",
        "tle_line2": "2 41330  65.1364 319.5561 0012268 220.0272 139.8771  2.13102512 76558"
      },
      "geometry": {
        "type": "Point",
        "coordinates": [
          143.54040864900105,
          -8.634518515716561
        ]
      }
    },
    {
      "type": "Feature",
      "properties": {
        "norad_id": 42939,
        "name": "COSMOS 2522 (752)",
        "group": "glo-ops",
        "lat": -40.60523182254672,
        "lon": 173.69833632159472,
        "alt_km": 19134.488087662456,
        "timestamp": "2025-12-09T11:33:55.060804+00:00",
        "meta_object_name": "COSMOS 2522 (752)",
        "meta_object_id": "2017-055A",
        "meta_epoch": "2025-12-08T03:13:49.063296",
        "meta_mean_motion": 2.13101881,
        "meta_eccentricity": 0.00064484,
        "meta_inclination": 64.0758,
        "meta_ra_of_asc_node": 198.386,
        "meta_arg_of_pericenter": 225.1717,
        "meta_mean_anomaly": 134.8539,
        "meta_ephemeris_type": 0,
        "meta_classification_type": "U",
        "meta_norad_cat_id": 42939,
        "meta_element_set_no": 999,
        "meta_rev_at_epoch": 6390,
        "meta_bstar": 0,
        "meta_mean_motion_dot": 5.1e-07,
        "meta_mean_motion_ddot": 0,
        "tle_line1": "1 42939U 17055A   25342.13459564  .00000051  00000+0  00000+0 0  9992",
        "tle_line2": "2 42939  64.0758 198.3860 0006448 225.1717 134.8539  2.13101881 63907"
      },
      "geometry": {
        "type": "Point",
        "coordinates": [
          173.69833632159472,
          -40.60523182254672
        ]
      }
    },
    {
      "type": "Feature",
      "properties": {
        "norad_id": 43508,
        "name": "COSMOS 2527 (756)",
        "group": "glo-ops",
        "lat": -14.780873386208668,
        "lon": 73.33730137400464,
        "alt_km": 19142.89013764118,
        "timestamp": "2025-12-09T11:33:55.060816+00:00",
        "meta_object_name": "COSMOS 2527 (756)",
        "meta_object_id": "2018-053A",
        "meta_epoch": "2025-12-08T13:33:02.442240",
        "meta_mean_motion": 2.1310206,
        "meta_eccentricity": 0.0008756,
        "meta_inclination": 65.4701,
        "meta_ra_of_asc_node": 80.2713,
        "meta_arg_of_pericenter": 225.5022,
        "meta_mean_anomaly": 134.4409,
        "meta_ephemeris_type": 0,
        "meta_classification_type": "U",
        "meta_norad_cat_id": 43508,
        "meta_element_set_no": 999,
        "meta_rev_at_epoch": 5821,
        "meta_bstar": 0,
        "meta_mean_motion_dot": -1e-07,
        "meta_mean_motion_ddot": 0,
        "tle_line1": "1 43508U 18053A   25342.56461160 -.00000010  00000+0  00000+0 0  9992",
        "tle_line2": "2 43508  65.4701  80.2713 0008756 225.5022 134.4409  2.13102060 58216"
      },
      "geometry": {
        "type": "Point",
        "coordinates": [
          73.33730137400464,
          -14.780873386208668
        ]
      }
    },
    {
      "type": "Feature",
      "properties": {
        "norad_id": 43687,
        "name": "COSMOS 2529 (757)",
        "group": "glo-ops",
        "lat": -64.25518946224189,
        "lon": 106.51142977672627,
        "alt_km": 19118.76830626547,
        "timestamp": "2025-12-09T11:33:55.060828+00:00",
        "meta_object_name": "COSMOS 2529 (757)",
        "meta_object_id": "2018-086A",
        "meta_epoch": "2025-12-08T04:37:38.472960",
        "meta_mean_motion": 2.13101938,
        "meta_eccentricity": 0.0007175,
        "meta_inclination": 64.2918,
        "meta_ra_of_asc_node": 199.0421,
        "meta_arg_of_pericenter": 254.1873,
        "meta_mean_anomaly": 105.8121,
        "meta_ephemeris_type": 0,
        "meta_classification_type": "U",
        "meta_norad_cat_id": 43687,
        "meta_element_set_no": 999,
        "meta_rev_at_epoch": 5521,
        "meta_bstar": 0,
        "meta_mean_motion_dot": 5e-07,
        "meta_mean_motion_ddot": 0,
        "tle_line1": "1 43687U 18086A   25342.19280640  .00000050  00000+0  00000+0 0  9990",
        "tle_line2": "2 43687  64.2918 199.0421 0007175 254.1873 105.8121  2.13101938 55215"
      },
      "geometry": {
        "type": "Point",
        "coordinates": [
          106.51142977672627,
          -64.25518946224189
        ]
      }
    },
    {
      "type": "Feature",
      "properties": {
        "norad_id": 44299,
        "name": "COSMOS 2534 (758)",
        "group": "glo-ops",
        "lat": 38.25522625255619,
        "lon": -138.7446083304647,
        "alt_km": 19136.937956666887,
        "timestamp": "2025-12-09T11:33:55.060840+00:00",
        "meta_object_name": "COSMOS 2534 (758)",
        "meta_object_id": "2019-030A",
        "meta_epoch": "2025-12-09T05:29:56.086368",
        "meta_mean_motion": 2.13102103,
        "meta_eccentricity": 0.0009006,
        "meta_inclination": 64.3653,
        "meta_ra_of_asc_node": 199.0114,
        "meta_arg_of_pericenter": 283.3894,
        "meta_mean_anomaly": 286.0531,
        "meta_ephemeris_type": 0,
        "meta_classification_type": "U",
        "meta_norad_cat_id": 44299,
        "meta_element_set_no": 999,
        "meta_rev_at_epoch": 5087,
        "meta_bstar": 0,
        "meta_mean_motion_dot": 4.4e-07,
        "meta_mean_motion_ddot": 0,
        "tle_line1": "1 44299U 19030A   25343.22912137  .00000044  00000+0  00000+0 0  9991",
        "tle_line2": "2 44299  64.3653 199.0114 0009006 283.3894 286.0531  2.13102103 50872"
      },
      "geometry": {
        "type": "Point",
        "coordinates": [
          -138.7446083304647,
          38.25522625255619
        ]
      }
    },
    {
      "type": "Feature",
      "properties": {
        "norad_id": 44850,
        "name": "COSMOS 2544 (759)",
        "group": "glo-ops",
        "lat": 23.678079573753113,
        "lon": 91.61319853554976,
        "alt_km": 19152.818993776338,
        "timestamp": "2025-12-09T11:33:55.060852+00:00",
        "meta_object_name": "COSMOS 2544 (759)",
        "meta_object_id": "2019-088A",
        "meta_epoch": "2025-12-08T00:57:27.919872",
        "meta_mean_motion": 2.13101724,
        "meta_eccentricity": 0.0013638,
        "meta_inclination": 65.4575,
        "meta_ra_of_asc_node": 80.1157,
        "meta_arg_of_pericenter": 249.1317,
        "meta_mean_anomaly": 110.7358,
        "meta_ephemeris_type": 0,
        "meta_classification_type": "U",
        "meta_norad_cat_id": 44850,
        "meta_element_set_no": 999,
        "meta_rev_at_epoch": 4664,
        "meta_bstar": 0,
        "meta_mean_motion_dot": -1e-07,
        "meta_mean_motion_ddot": 0,
        "tle_line1": "1 44850U 19088A   25342.03990648 -.00000010  00000+0  00000+0 0  9992",
        "tle_line2": "2 44850  65.4575  80.1157 0013638 249.1317 110.7358  2.13101724 46641"
      },
      "geometry": {
        "type": "Point",
        "coordinates": [
          91.61319853554976,
          23.678079573753113
        ]
      }
    },
    {
      "type": "Feature",
      "properties": {
        "norad_id": 45358,
        "name": "COSMOS 2545 (760)",
        "group": "glo-ops",
        "lat": -48.36282231255985,
        "lon": 171.57837289849303,
        "alt_km": 19105.909647615877,
        "timestamp": "2025-12-09T11:33:55.060864+00:00",
        "meta_object_name": "COSMOS 2545 (760)",
        "meta_object_id": "2020-018A",
        "meta_epoch": "2025-12-08T16:55:08.294304",
        "meta_mean_motion": 2.13102232,
        "meta_eccentricity": 0.001191,
        "meta_inclination": 64.4721,
        "meta_ra_of_asc_node": 319.1114,
        "meta_arg_of_pericenter": 248.7479,
        "meta_mean_anomaly": 111.12,
        "meta_ephemeris_type": 0,
        "meta_classification_type": "U",
        "meta_norad_cat_id": 45358,
        "meta_element_set_no": 999,
        "meta_rev_at_epoch": 4460,
        "meta_bstar": 0,
        "meta_mean_motion_dot": -5e-07,
        "meta_mean_motion_ddot": 0,
        "tle_line1": "1 45358U 20018A   25342.70495711 -.00000050  00000+0  00000+0 0  9990",
        "tle_line2": "2 45358  64.4721 319.1114 0011910 248.7479 111.1200  2.13102232 44600"
      },
      "geometry": {
        "type": "Point",
        "coordinates": [
          171.57837289849303,
          -48.36282231255985
        ]
      }
    }
  ]
}